IRIDIUM 57              
1 25273U 98019B   24262.49499318  .00000973  00000+0  33226-3 0  9996
2 25273  86.3902 259.0156 0002264  90.7581 269.3875 14.35404418386013
IRIDIUM 63              
1 25286U 98021B   24261.92472333  .00001525  00000+0  51864-3 0  9990
2 25286  86.4049 196.1989 0002606  84.2270 275.9224 14.36005264385037
IRIDIUM 69              
1 25319U 98026A   24261.92823780  .00002046  00000+0  64027-3 0  9992
2 25319  86.4018 210.2883 0002602 140.3067 219.8323 14.40266999383860
IRIDIUM 71              
1 25320U 98026B   24261.90841985  .00001653  00000+0  51320-3 0  9994
2 25320  86.4027 205.0438 0000329  90.9220 269.2017 14.40570782384638
IRIDIUM 73              
1 25344U 98032C   24262.14355212  .00001980  00000+0  49700-3 0  9999
2 25344  86.4485 162.2768 0002336  99.8232 260.3237 14.50892501391409
IRIDIUM 82              
1 25467U 98051A   24261.97975083  .00028132  00000+0  12830-2 0  9991
2 25467  86.3706 241.5900 0114957 236.8896 122.1270 15.14681604382516
